{"type": "FeatureCollection", "features": [ {"type": "Feature", "properties": {"norad_id": 42741, "name": "EUTELSAT 172B", "group": "eutelsat", "lat": -0.01718027754981439, "lon": 21.362147255925088, "alt_km": 35786.749658308785, "timestamp": "2025-12-25T07:41:09.394326+00:00", "meta": {"OBJECT_NAME": "EUTELSAT 172B", "OBJECT_ID": "2017-029B", "EPOCH": "2025-12-24T20:45:57.021120", "MEAN_MOTION": 1.00270202, "ECCENTRICITY": 1.37e-05, "INCLINATION": 0.0319, "RA_OF_ASC_NODE": 134.4389, "ARG_OF_PERICENTER": 1.6548, "MEAN_ANOMALY": 81.0289, "EPHEMERIS_TYPE": 0, "CLASSIFICATION_TYPE": "U", "NORAD_CAT_ID": 42741, "ELEMENT_SET_NO": 999, "REV_AT_EPOCH": 3198, "BSTAR": 0, "MEAN_MOTION_DOT": 1.5e-07, "MEAN_MOTION_DDOT": 0}, "tle": {"line1": "1 42741U 17029B   25358.86524330  .00000015  00000+0  00000+0 0  9995", "line2": "2 42741   0.0319 134.4389 0000137   1.6548  81.0289  1.00270202 31983"}}, "geometry": {"type": "Point", "coordinates": [21.362147255925088, -0.01718027754981439]}}, {"type": "Feature", "properties": {"norad_id": 44334, "name": "EUTELSAT 7C", "group": "eutelsat", "lat": 0.038564831161494256, "lon": -143.68757629250814, "alt_km": 35776.30749174062, "timestamp": "2025-12-25T07:41:09.394339+00:00", "meta": {"OBJECT_NAME": "EUTELSAT 7C", "OBJECT_ID": "2019-034B", "EPOCH": "2025-12-24T14:50:38.546016", "MEAN_MOTION": 1.00270796, "ECCENTRICITY": 0.00031593, "INCLINATION": 0.0726, "RA_OF_ASC_NODE": 177.7928, "ARG_OF_PERICENTER": 79.9691, "MEAN_ANOMALY": 65.2631, "EPHEMERIS_TYPE": 0, "CLASSIFICATION_TYPE": "U", "NORAD_CAT_ID": 44334, "ELEMENT_SET_NO": 999, "REV_AT_EPOCH": 508, "BSTAR": 0, "MEAN_MOTION_DOT": 6.9e-07, "MEAN_MOTION_DDOT": 0}, "tle": {"line1": "1 44334U 19034B   25358.61850169  .00000069  00000+0  00000+0 0  9997", "line2": "2 44334   0.0726 177.7928 0003159  79.9691  65.2631  1.00270796  5083"}}, "geometry": {"type": "Point", "coordinates": [-143.68757629250814, 0.038564831161494256]}}, {"type": "Feature", "properties": {"norad_id": 44624, "name": "EUTELSAT 5 WEST B", "group": "eutelsat", "lat": -0.046448793504716236, "lon": -155.66765789518448, "alt_km": 35781.31953728727, "timestamp": "2025-12-25T07:41:09.394350+00:00", "meta": {"OBJECT_NAME": "EUTELSAT 5 WEST B", "OBJECT_ID": "2019-067A", "EPOCH": "2025-12-24T21:38:07.024416", "MEAN_MOTION": 1.00271315, "ECCENTRICITY": 0.0003135, "INCLINATION": 0.063, "RA_OF_ASC_NODE": 343.8095, "ARG_OF_PERICENTER": 288.8779, "MEAN_ANOMALY": 140.5133, "EPHEMERIS_TYPE": 0, "CLASSIFICATION_TYPE": "U", "NORAD_CAT_ID": 44624, "ELEMENT_SET_NO": 999, "REV_AT_EPOCH": 2268, "BSTAR": 0, "MEAN_MOTION_DOT": -2.1e-07, "MEAN_MOTION_DDOT": 0}, "tle": {"line1": "1 44624U 19067A   25358.90147019 -.00000021  00000+0  00000+0 0  9999", "line2": "2 44624   0.0630 343.8095 0003135 288.8779 140.5133  1.00271315 22689"}}, "geometry": {"type": "Point", "coordinates": [-155.66765789518448, -0.046448793504716236]}}, {"type": "Feature", "properties": {"norad_id": 45027, "name": "EUTELSAT KONNECT", "group": "eutelsat", "lat": 0.05095734639609279, "lon": -143.45314503780708, "alt_km": 35783.835255908736, "timestamp": "2025-12-25T07:41:09.394363+00:00", "meta": {"OBJECT_NAME": "EUTELSAT KONNECT", "OBJECT_ID": "2020-005B", "EPOCH": "2025-12-24T14:50:46.034304", "MEAN_MOTION": 1.00269906, "ECCENTRICITY": 0.00014622, "INCLINATION": 0.0704, "RA_OF_ASC_NODE": 94.2724, "ARG_OF_PERICENTER": 186.2921, "MEAN_ANOMALY": 42.7194, "EPHEMERIS_TYPE": 0, "CLASSIFICATION_TYPE": "U", "NORAD_CAT_ID": 45027, "ELEMENT_SET_NO": 999, "REV_AT_EPOCH": 2258, "BSTAR": 0, "MEAN_MOTION_DOT": 7e-07, "MEAN_MOTION_DDOT": 0}, "tle": {"line1": "1 45027U 20005B   25358.61858836  .00000070  00000+0  00000+0 0  9998", "line2": "2 45027   0.0704  94.2724 0001462 186.2921  42.7194  1.00269906 22588"}}, "geometry": {"type": "Point", "coordinates": [-143.45314503780708, 0.05095734639609279]}}, {"type": "Feature", "properties": {"norad_id": 49056, "name": "EUTELSAT QUANTUM", "group": "eutelsat", "lat": -0.02897836017688968, "lon": -102.95127335891384, "alt_km": 35772.934600852044, "timestamp": "2025-12-25T07:41:09.394378+00:00", "meta": {"OBJECT_NAME": "EUTELSAT QUANTUM", "OBJECT_ID": "2021-069B", "EPOCH": "2025-12-24T21:53:13.077888", "MEAN_MOTION": 1.00270972, "ECCENTRICITY": 0.00034713, "INCLINATION": 0.0114, "RA_OF_ASC_NODE": 15.3985, "ARG_OF_PERICENTER": 266.5825, "MEAN_ANOMALY": 187.7051, "EPHEMERIS_TYPE": 0, "CLASSIFICATION_TYPE": "U", "NORAD_CAT_ID": 49056, "ELEMENT_SET_NO": 999, "REV_AT_EPOCH": 1618, "BSTAR": 0, "MEAN_MOTION_DOT": 1.47e-06, "MEAN_MOTION_DDOT": 0}, "tle": {"line1": "1 49056U 21069B   25358.91195692  .00000147  00000+0  00000+0 0  9997", "line2": "2 49056   0.0114  15.3985 0003471 266.5825 187.7051  1.00270972 16185"}}, "geometry": {"type": "Point", "coordinates": [-102.95127335891384, -0.02897836017688968]}}, {"type": "Feature", "properties": {"norad_id": 53765, "name": "EUTELSAT KONNECT VHTS", "group": "eutelsat", "lat": 0.04653133169305701, "lon": -147.9396753674364, "alt_km": 35778.8075326025, "timestamp": "2025-12-25T07:41:09.394390+00:00", "meta": {"OBJECT_NAME": "EUTELSAT KONNECT VHTS", "OBJECT_ID": "2022-110A", "EPOCH": "2025-12-24T21:40:21.809280", "MEAN_MOTION": 1.00267478, "ECCENTRICITY": 0.00024932, "INCLINATION": 0.0601, "RA_OF_ASC_NODE": 98.2899, "ARG_OF_PERICENTER": 150.2235, "MEAN_ANOMALY": 172.9674, "EPHEMERIS_TYPE": 0, "CLASSIFICATION_TYPE": "U", "NORAD_CAT_ID": 53765, "ELEMENT_SET_NO": 999, "REV_AT_EPOCH": 507, "BSTAR": 0, "MEAN_MOTION_DOT": 3.8e-07, "MEAN_MOTION_DDOT": 0}, "tle": {"line1": "1 53765U 22110A   25358.90303020  .00000038  00000+0  00000+0 0  9991", "line2": "2 53765   0.0601  98.2899 0002493 150.2235 172.9674  1.00267478  5079"}}, "geometry": {"type": "Point", "coordinates": [-147.9396753674364, 0.04653133169305701]}}, {"type": "Feature", "properties": {"norad_id": 54048, "name": "EUTELSAT HOTBIRD 13F", "group": "eutelsat", "lat": -0.05610958579902452, "lon": -137.65965023670455, "alt_km": 35793.297293447744, "timestamp": "2025-12-25T07:41:09.394401+00:00", "meta": {"OBJECT_NAME": "EUTELSAT HOTBIRD 13F", "OBJECT_ID": "2022-134A", "EPOCH": "2025-12-24T16:35:06.042624", "MEAN_MOTION": 1.00270762, "ECCENTRICITY": 0.00022006, "INCLINATION": 0.055, "RA_OF_ASC_NODE": 289.1731, "ARG_OF_PERICENTER": 72.2821, "MEAN_ANOMALY": 353.7761, "EPHEMERIS_TYPE": 0, "CLASSIFICATION_TYPE": "U", "NORAD_CAT_ID": 54048, "ELEMENT_SET_NO": 999, "REV_AT_EPOCH": 1162, "BSTAR": 0, "MEAN_MOTION_DOT": 1.08e-06, "MEAN_MOTION_DDOT": 0}, "tle": {"line1": "1 54048U 22134A   25358.69104216  .00000108  00000+0  00000+0 0  9992", "line2": "2 54048   0.0550 289.1731 0002200  72.2821 353.7761  1.00270762 11627"}}, "geometry": {"type": "Point", "coordinates": [-137.65965023670455, -0.05610958579902452]}}, {"type": "Feature", "properties": {"norad_id": 54225, "name": "EUTELSAT HOTBIRD 13G", "group": "eutelsat", "lat": -0.022362873788479752, "lon": -137.63914748422644, "alt_km": 35781.90367921046, "timestamp": "2025-12-25T07:41:09.394413+00:00", "meta": {"OBJECT_NAME": "EUTELSAT HOTBIRD 13G", "OBJECT_ID": "2022-146A", "EPOCH": "2025-12-24T00:28:38.654112", "MEAN_MOTION": 1.00268836, "ECCENTRICITY": 0.00017131, "INCLINATION": 0.0535, "RA_OF_ASC_NODE": 227.8066, "ARG_OF_PERICENTER": 307.349, "MEAN_ANOMALY": 297.8001, "EPHEMERIS_TYPE": 0, "CLASSIFICATION_TYPE": "U", "NORAD_CAT_ID": 54225, "ELEMENT_SET_NO": 999, "REV_AT_EPOCH": 571, "BSTAR": 0, "MEAN_MOTION_DOT": 1.08e-06, "MEAN_MOTION_DDOT": 0}, "tle": {"line1": "1 54225U 22146A   25358.01989183  .00000108  00000+0  00000+0 0  9992", "line2": "2 54225   0.0535 227.8066 0001713 307.3490 297.8001  1.00268836  5716"}}, "geometry": {"type": "Point", "coordinates": [-137.63914748422644, -0.022362873788479752]}}, {"type": "Feature", "properties": {"norad_id": 54259, "name": "EUTELSAT 10B", "group": "eutelsat", "lat": 0.03932302087286925, "lon": -140.6045497117742, "alt_km": 35785.40076052161, "timestamp": "2025-12-25T07:41:09.394424+00:00", "meta": {"OBJECT_NAME": "EUTELSAT 10B", "OBJECT_ID": "2022-157A", "EPOCH": "2025-12-24T21:42:21.617568", "MEAN_MOTION": 1.00269971, "ECCENTRICITY": 6.954e-05, "INCLINATION": 0.0597, "RA_OF_ASC_NODE": 95.577, "ARG_OF_PERICENTER": 57.2029, "MEAN_ANOMALY": 276.5084, "EPHEMERIS_TYPE": 0, "CLASSIFICATION_TYPE": "U", "NORAD_CAT_ID": 54259, "ELEMENT_SET_NO": 999, "REV_AT_EPOCH": 1127, "BSTAR": 0, "MEAN_MOTION_DOT": 8.9e-07, "MEAN_MOTION_DDOT": 0}, "tle": {"line1": "1 54259U 22157A   25358.90441687  .00000089  00000+0  00000+0 0  9999", "line2": "2 54259   0.0597  95.5770 0000695  57.2029 276.5084  1.00269971 11274"}}, "geometry": {"type": "Point", "coordinates": [-140.6045497117742, 0.03932302087286925]}}, {"type": "Feature", "properties": {"norad_id": 59346, "name": "EUTELSAT 36D", "group": "eutelsat", "lat": -0.02300878518792404, "lon": -114.7555561670574, "alt_km": 35785.370775688294, "timestamp": "2025-12-25T07:41:09.394436+00:00", "meta": {"OBJECT_NAME": "EUTELSAT 36D", "OBJECT_ID": "2024-059A", "EPOCH": "2025-12-24T21:49:50.901024", "MEAN_MOTION": 1.00275345, "ECCENTRICITY": 6.342e-05, "INCLINATION": 0.0185, "RA_OF_ASC_NODE": 36.8149, "ARG_OF_PERICENTER": 305.8613, "MEAN_ANOMALY": 114.3448, "EPHEMERIS_TYPE": 0, "CLASSIFICATION_TYPE": "U", "NORAD_CAT_ID": 59346, "ELEMENT_SET_NO": 999, "REV_AT_EPOCH": 640, "BSTAR": 0, "MEAN_MOTION_DOT": 1.77e-06, "MEAN_MOTION_DDOT": 0}, "tle": {"line1": "1 59346U 24059A   25358.90961691  .00000177  00000+0  00000+0 0  9994", "line2": "2 59346   0.0185  36.8149 0000634 305.8613 114.3448  1.00275345  6405"}}, "geometry": {"type": "Point", "coordinates": [-114.7555561670574, -0.02300878518792404]}}]}